{
  "type": "FeatureCollection",
  "features": [
    {
      "type": "Feature",
      "properties": {
        "norad_id": 36744,
        "name": "COMS 1",
        "group": "weather",
        "lat": -0.4973954700863229,
        "lon": 71.19464112544715,
        "alt_km": 35790.64164510786,
        "timestamp": "2025-12-10T14:53:36.768575+00:00",
        "meta_object_name": "COMS 1",
        "meta_object_id": "2010-032A",
        "meta_epoch": "2025-12-09T14:54:38.530656",
        "meta_mean_motion": 1.00270977,
        "meta_eccentricity": 0.00011288,
        "meta_inclination": 4.3339,
        "meta_ra_of_asc_node": 78.0311,
        "meta_arg_of_pericenter": 203.6251,
        "meta_mean_anomaly": 148.7892,
        "meta_ephemeris_type": 0,
        "meta_classification_type": "U",
        "meta_norad_cat_id": 36744,
        "meta_element_set_no": 999,
        "meta_rev_at_epoch": 4918,
        "meta_bstar": 0,
        "meta_mean_motion_dot": -3.42e-06,
        "meta_mean_motion_ddot": 0,
        "tle_line1": "1 36744U 10032A   25343.62127929 -.00000342  00000+0  00000+0 0  9993",
        "tle_line2": "2 36744   4.3339  78.0311 0001128 203.6251 148.7892  1.00270977 49183"
      },
      "geometry": {
        "type": "Point",
        "coordinates": [
          71.19464112544715,
          -0.4973954700863229
        ]
      }
    },
    {
      "type": "Feature",
      "properties": {
        "norad_id": 37214,
        "name": "FENGYUN 3B",
        "group": "weather",
        "lat": 46.64457638338112,
        "lon": 14.93003426793423,
        "alt_km": 827.2867800989343,
        "timestamp": "2025-12-10T14:53:36.768585+00:00",
        "meta_object_name": "FENGYUN 3B",
        "meta_object_id": "2010-059A",
        "meta_epoch": "2025-12-10T06:48:50.010624",
        "meta_mean_motion": 14.14788582,
        "meta_eccentricity": 0.00221719,
        "meta_inclination": 98.9905,
        "meta_ra_of_asc_node": 24.2437,
        "meta_arg_of_pericenter": 4.7277,
        "meta_mean_anomaly": 128.8789,
        "meta_ephemeris_type": 0,
        "meta_classification_type": "U",
        "meta_norad_cat_id": 37214,
        "meta_element_set_no": 999,
        "meta_rev_at_epoch": 78071,
        "meta_bstar": 0.00017991519,
        "meta_mean_motion_dot": 3.02e-06,
        "meta_mean_motion_ddot": 0,
        "tle_line1": "1 37214U 10059A   25344.28391216  .00000302  00000+0  17992-3 0  9997",
        "tle_line2": "2 37214  98.9905  24.2437 0022171   4.7277 128.8789 14.14788582780715"
      },
      "geometry": {
        "type": "Point",
        "coordinates": [
          14.93003426793423,
          46.64457638338112
        ]
      }
    },
    {
      "type": "Feature",
      "properties": {
        "norad_id": 37849,
        "name": "SUOMI NPP",
        "group": "weather",
        "lat": -31.849501032136608,
        "lon": 96.47360997485931,
        "alt_km": 832.9735778346594,
        "timestamp": "2025-12-10T14:53:36.768595+00:00",
        "meta_object_name": "SUOMI NPP",
        "meta_object_id": "2011-061A",
        "meta_epoch": "2025-12-10T07:07:50.273760",
        "meta_mean_motion": 14.19513126,
        "meta_eccentricity": 0.00021671,
        "meta_inclination": 98.7771,
        "meta_ra_of_asc_node": 281.6607,
        "meta_arg_of_pericenter": 124.4246,
        "meta_mean_anomaly": 235.7135,
        "meta_ephemeris_type": 0,
        "meta_classification_type": "U",
        "meta_norad_cat_id": 37849,
        "meta_element_set_no": 999,
        "meta_rev_at_epoch": 73164,
        "meta_bstar": 0.00011457168,
        "meta_mean_motion_dot": 1.97e-06,
        "meta_mean_motion_ddot": 0,
        "tle_line1": "1 37849U 11061A   25344.29710965  .00000197  00000+0  11457-3 0  9994",
        "tle_line2": "2 37849  98.7771 281.6607 0002167 124.4246 235.7135 14.19513126731641"
      },
      "geometry": {
        "type": "Point",
        "coordinates": [
          96.47360997485931,
          -31.849501032136608
        ]
      }
    },
    {
      "type": "Feature",
      "properties": {
        "norad_id": 38552,
        "name": "METEOSAT-10 (MSG-3)",
        "group": "weather",
        "lat": -3.722033062029799,
        "lon": -56.91192931139892,
        "alt_km": 35782.304043341224,
        "timestamp": "2025-12-10T14:53:36.768606+00:00",
        "meta_object_name": "METEOSAT-10 (MSG-3)",
        "meta_object_id": "2012-035B",
        "meta_epoch": "2025-12-09T20:25:24.031776",
        "meta_mean_motion": 1.00274082,
        "meta_eccentricity": 8.515e-05,
        "meta_inclination": 4.2224,
        "meta_ra_of_asc_node": 61.7294,
        "meta_arg_of_pericenter": 241.822,
        "meta_mean_anomaly": 81.7823,
        "meta_ephemeris_type": 0,
        "meta_classification_type": "U",
        "meta_norad_cat_id": 38552,
        "meta_element_set_no": 999,
        "meta_rev_at_epoch": 4895,
        "meta_bstar": 0,
        "meta_mean_motion_dot": -4e-08,
        "meta_mean_motion_ddot": 0,
        "tle_line1": "1 38552U 12035B   25343.85097259 -.00000004  00000+0  00000+0 0  9999",
        "tle_line2": "2 38552   4.2224  61.7294 0000851 241.8220  81.7823  1.00274082 48950"
      },
      "geometry": {
        "type": "Point",
        "coordinates": [
          -56.91192931139892,
          -3.722033062029799
        ]
      }
    },
    {
      "type": "Feature",
      "properties": {
        "norad_id": 38771,
        "name": "METOP-B",
        "group": "weather",
        "lat": 49.087437679781985,
        "lon": 24.46204800497348,
        "alt_km": 816.416988335217,
        "timestamp": "2025-12-10T14:53:36.768617+00:00",
        "meta_object_name": "METOP-B",
        "meta_object_id": "2012-049A",
        "meta_epoch": "2025-12-10T06:12:45.368352",
        "meta_mean_motion": 14.21406965,
        "meta_eccentricity": 0.00028055,
        "meta_inclination": 98.6803,
        "meta_ra_of_asc_node": 34.2597,
        "meta_arg_of_pericenter": 149.5157,
        "meta_mean_anomaly": 210.6184,
        "meta_ephemeris_type": 0,
        "meta_classification_type": "U",
        "meta_norad_cat_id": 38771,
        "meta_element_set_no": 999,
        "meta_rev_at_epoch": 68642,
        "meta_bstar": 0.00012220623,
        "meta_mean_motion_dot": 2.23e-06,
        "meta_mean_motion_ddot": 0,
        "tle_line1": "1 38771U 12049A   25344.25885843  .00000223  00000+0  12221-3 0  9990",
        "tle_line2": "2 38771  98.6803  34.2597 0002805 149.5157 210.6184 14.21406965686425"
      },
      "geometry": {
        "type": "Point",
        "coordinates": [
          24.46204800497348,
          49.087437679781985
        ]
      }
    },
    {
      "type": "Feature",
      "properties": {
        "norad_id": 39216,
        "name": "INSAT-3D",
        "group": "weather",
        "lat": -0.2915782128486924,
        "lon": 72.54082035603328,
        "alt_km": 35793.184890715755,
        "timestamp": "2025-12-10T14:53:36.768628+00:00",
        "meta_object_name": "INSAT-3D",
        "meta_object_id": "2013-038B",
        "meta_epoch": "2025-12-10T05:30:26.805888",
        "meta_mean_motion": 1.00270959,
        "meta_eccentricity": 0.0001606,
        "meta_inclination": 1.4387,
        "meta_ra_of_asc_node": 85.0161,
        "meta_arg_of_pericenter": 162.7742,
        "meta_mean_anomaly": 43.5747,
        "meta_ephemeris_type": 0,
        "meta_classification_type": "U",
        "meta_norad_cat_id": 39216,
        "meta_element_set_no": 999,
        "meta_rev_at_epoch": 4518,
        "meta_bstar": 0,
        "meta_mean_motion_dot": -3.35e-06,
        "meta_mean_motion_ddot": 0,
        "tle_line1": "1 39216U 13038B   25344.22947692 -.00000335  00000+0  00000+0 0  9995",
        "tle_line2": "2 39216   1.4387  85.0161 0001606 162.7742  43.5747  1.00270959 45180"
      },
      "geometry": {
        "type": "Point",
        "coordinates": [
          72.54082035603328,
          -0.2915782128486924
        ]
      }
    },
    {
      "type": "Feature",
      "properties": {
        "norad_id": 39260,
        "name": "FENGYUN 3C",
        "group": "weather",
        "lat": -19.260640853432164,
        "lon": -34.609796514185575,
        "alt_km": 852.6164248093928,
        "timestamp": "2025-12-10T14:53:36.768637+00:00",
        "meta_object_name": "FENGYUN 3C",
        "meta_object_id": "2013-052A",
        "meta_epoch": "2025-12-10T06:30:15.735744",
        "meta_mean_motion": 14.15695134,
        "meta_eccentricity": 0.00141426,
        "meta_inclination": 98.476,
        "meta_ra_of_asc_node": 322.071,
        "meta_arg_of_pericenter": 203.3447,
        "meta_mean_anomaly": 156.7088,
        "meta_ephemeris_type": 0,
        "meta_classification_type": "U",
        "meta_norad_cat_id": 39260,
        "meta_element_set_no": 999,
        "meta_rev_at_epoch": 63183,
        "meta_bstar": 0.00012863263,
        "meta_mean_motion_dot": 2.11e-06,
        "meta_mean_motion_ddot": 0,
        "tle_line1": "1 39260U 13052A   25344.27101546  .00000211  00000+0  12863-3 0  9991",
        "tle_line2": "2 39260  98.4760 322.0710 0014142 203.3447 156.7088 14.15695134631831"
      },
      "geometry": {
        "type": "Point",
        "coordinates": [
          -34.609796514185575,
          -19.260640853432164
        ]
      }
    }
  ]
}